SOYUZ-MS 28             
1 66664U 25275A   26194.76644922  .00004013  00000+0  80956-4 0  9990
2 66664  51.6307 168.5527 0006711 292.2587  67.7689 15.49001429575810
CREW DRAGON 12          
1 67796U 26031A   26194.76644922  .00004013  00000+0  80956-4 0  9998
2 67796  51.6307 168.5527 0006711 292.2587  67.7689 15.49001429575794
SHENZHOU-23 (SZ-23)     
1 69180U 26113A   26194.54839549  .00000774  00000+0  14285-4 0  9997
2 69180  41.4687 161.8154 0002308 295.5855  64.4744 15.58055023296059
